SENTINEL-6              
1 46984U 20086A   23316.71208321 -.00000061  00000+0  10233-5 0  9997
2 46984  66.0409 302.9670 0007912 268.6082  91.4026 12.80931251138978
